[{"OBJECT_NAME":"ORBCOMM FM27","OBJECT_ID":"1998-053G","EPOCH":"2026-03-09T11:53:47.305824","MEAN_MOTION":14.3893044,"ECCENTRICITY":0.00018909,"INCLINATION":45.0048,"RA_OF_ASC_NODE":88.78,"ARG_OF_PERICENTER":259.8961,"MEAN_ANOMALY":100.1675,"EPHEMERIS_TYPE":0,"CLASSIFICATION_TYPE":"U","NORAD_CAT_ID":25481,"ELEMENT_SET_NO":999,"REV_AT_EPOCH":43587,"BSTAR":0.00047812945,"MEAN_MOTION_DOT":1.345e-5,"MEAN_MOTION_DDOT":0},{"OBJECT_NAME":"CZ-6A DEB","OBJECT_ID":"2022-151XE","EPOCH":"2026-03-09T05:06:53.058240","MEAN_MOTION":14.58496451,"ECCENTRICITY":0.01069398,"INCLINATION":98.7609,"RA_OF_ASC_NODE":154.9789,"ARG_OF_PERICENTER":205.9717,"MEAN_ANOMALY":153.6091,"EPHEMERIS_TYPE":0,"CLASSIFICATION_TYPE":"U","NORAD_CAT_ID":55237,"ELEMENT_SET_NO":999,"REV_AT_EPOCH":17470,"BSTAR":0.001204957,"MEAN_MOTION_DOT":6.004e-5,"MEAN_MOTION_DDOT":0}]
